APRIZESAT 2             
1 28366U 04025A   26183.17489955  .00000266  00000+0  95617-4 0  9999
2 28366  98.1028 348.3078 0105043 204.1934 155.4302 14.38042597153792
SAUDICOMSAT 1           
1 28369U 04025D   26183.27781955  .00000433  00000+0  11025-3 0  9994
2 28369  98.5771 193.8164 0031651 339.4884  20.5040 14.55485884166325
SAUDICOMSAT 2           
1 28370U 04025E   26182.96151080  .00000236  00000+0  72374-4 0  9997
2 28370  98.6639 195.6256 0054747 213.9808 145.7875 14.49988919162249
APRIZESAT 1             
1 28372U 04025G   26182.97492777  .00000299  00000+0  85480-4 0  9992
2 28372  98.6303 194.1029 0045705 109.8102 250.8029 14.51785626164058
NANOSAT-1               
1 28493U 04049B   26183.31159903  .00001198  00000+0  16497-3 0  9992
2 28493  98.2296 320.3439 0002923 232.4512 127.6434 14.80190132157686
SAUDICOMSAT 7           
1 31119U 07012C   26183.19565622  .00000632  00000+0  12196-3 0  9993
2 31119  98.3787 157.6351 0056338 148.2879 212.1738 14.66125298 24634
SAUDICOMSAT 6           
1 31121U 07012E   26183.14116374  .00000519  00000+0  10909-3 0  9991
2 31121  98.4106 150.9366 0070404 280.5151  78.8123 14.62574672 22372
SAUDICOMSAT 5           
1 31124U 07012H   26182.87549792  .00000803  00000+0  14632-3 0  9990
2 31124  98.3497 158.0522 0048723  79.7097 280.9595 14.68176832 25752
SAUDICOMSAT 3           
1 31125U 07012J   26182.87856928  .00000971  00000+0  16617-3 0  9994
2 31125  98.3151 158.6026 0039289   7.6291 352.5504 14.70731524 26988
SAUDICOMSAT 4           
1 31127U 07012L   26183.18561738  .00000490  00000+0  99763-4 0  9993
2 31127  98.3992 156.0626 0062661 210.5588 149.1957 14.64525949 23484
APRIZESAT 4             
1 35684U 09041D   26183.15936325  .00000764  00000+0  97714-4 0  9992
2 35684  98.1409 258.7781 0041886 273.0980  86.5440 14.83899214913585
APRIZESAT 3             
1 35686U 09041F   26182.94495552  .00001008  00000+0  91794-4 0  9996
2 35686  98.2079 336.8773 0062003  19.3739 340.9818 14.96280631918589
S-NET D                 
1 43186U 18014G   26183.30574119  .00005831  00000+0  29993-3 0  9997
2 43186  97.5349  88.0024 0007252 338.6967  21.3964 15.16814606461050
S-NET B                 
1 43187U 18014H   26183.25151886  .00005527  00000+0  28467-3 0  9991
2 43187  97.5354  87.9355 0007701 333.1236  26.9597 15.16784336461048
S-NET A                 
1 43188U 18014J   26183.30453556  .00005847  00000+0  30065-3 0  9999
2 43188  97.5364  88.1999 0007629 333.6682  26.4162 15.16822911461052
S-NET C                 
1 43189U 18014K   26183.25547208  .00005649  00000+0  29088-3 0  9995
2 43189  97.5384  88.2280 0008766 324.1062  35.9581 15.16776471459594
SALSAT                  
1 46495U 20068K   26183.25417133  .00008637  00000+0  29987-3 0  9991
2 46495  97.8847 187.2381 0008037 243.7769 116.2645 15.30013367317666
OOV-CUBE (TUBSAT-30)    
1 60240U 24128F   26183.29264765  .00002351  00000+0  18701-3 0  9990
2 60240  61.9933 172.8979 0042726 137.0768 223.3671 15.02829390108384
LPNTSAT-001 (IOD-1)     
1 68408U 26065A   26182.63918262  .00002801  00000+0  13827-3 0  9995
2 68408  97.3999  62.8427 0015215 318.8569  41.1518 15.18610529 14459
